{
  "type": "FeatureCollection",
  "features": [
    {
      "type": "Feature",
      "properties": {
        "norad_id": 66711,
        "name": "FLOCK 4H-8",
        "group": "last-30-days",
        "lat": -82.5367785819164,
        "lon": 165.68924628804683,
        "alt_km": 519.1790927637585,
        "timestamp": "2025-12-26T10:30:48.974091+00:00",
        "meta_object_name": "FLOCK 4H-8",
        "meta_object_id": "2025-276AX",
        "meta_epoch": "2025-12-26T04:00:01.998720",
        "meta_mean_motion": 15.17513017,
        "meta_eccentricity": 0.000226,
        "meta_inclination": 97.4426,
        "meta_ra_of_asc_node": 71.7085,
        "meta_arg_of_pericenter": 251.0857,
        "meta_mean_anomaly": 336.8082,
        "meta_ephemeris_type": 0,
        "meta_classification_type": "U",
        "meta_norad_cat_id": 66711,
        "meta_element_set_no": 999,
        "meta_rev_at_epoch": 216,
        "meta_bstar": 0.0024769,
        "meta_mean_motion_dot": 0.000499,
        "meta_mean_motion_ddot": 0,
        "tle_line1": "1 66711U 25276AX  25360.16668980  .00049900  00000+0  24769-2 0  9994",
        "tle_line2": "2 66711  97.4426  71.7085 0002260 251.0857 336.8082 15.17513017  2161"
      },
      "geometry": {
        "type": "Point",
        "coordinates": [
          165.68924628804683,
          -82.5367785819164
        ]
      }
    },
    {
      "type": "Feature",
      "properties": {
        "norad_id": 66712,
        "name": "FLOCK 4H-9",
        "group": "last-30-days",
        "lat": -44.09964970054717,
        "lon": 79.26828316202348,
        "alt_km": 519.6057116740039,
        "timestamp": "2025-12-26T10:30:48.974103+00:00",
        "meta_object_name": "FLOCK 4H-9",
        "meta_object_id": "2025-276AY",
        "meta_epoch": "2025-12-26T02:47:57.524064",
        "meta_mean_motion": 15.17958197,
        "meta_eccentricity": 0.0002932,
        "meta_inclination": 97.4417,
        "meta_ra_of_asc_node": 71.6754,
        "meta_arg_of_pericenter": 201.5166,
        "meta_mean_anomaly": 158.5945,
        "meta_ephemeris_type": 0,
        "meta_classification_type": "U",
        "meta_norad_cat_id": 66712,
        "meta_element_set_no": 999,
        "meta_rev_at_epoch": 415,
        "meta_bstar": 0.00033405,
        "meta_mean_motion_dot": 6.719e-05,
        "meta_mean_motion_ddot": 0,
        "tle_line1": "1 66712U 25276AY  25360.11663801  .00006719  00000+0  33405-3 0  9996",
        "tle_line2": "2 66712  97.4417  71.6754 0002932 201.5166 158.5945 15.17958197  4153"
      },
      "geometry": {
        "type": "Point",
        "coordinates": [
          79.26828316202348,
          -44.09964970054717
        ]
      }
    },
    {
      "type": "Feature",
      "properties": {
        "norad_id": 66713,
        "name": "FLOCK 4H-10",
        "group": "last-30-days",
        "lat": -68.16714334775305,
        "lon": -127.08506426023574,
        "alt_km": 518.8583734834665,
        "timestamp": "2025-12-26T10:30:48.974115+00:00",
        "meta_object_name": "FLOCK 4H-10",
        "meta_object_id": "2025-276AZ",
        "meta_epoch": "2025-12-25T11:15:33.486912",
        "meta_mean_motion": 15.17312979,
        "meta_eccentricity": 0.00034593,
        "meta_inclination": 97.4392,
        "meta_ra_of_asc_node": 70.9982,
        "meta_arg_of_pericenter": 240.4175,
        "meta_mean_anomaly": 119.6714,
        "meta_ephemeris_type": 0,
        "meta_classification_type": "U",
        "meta_norad_cat_id": 66713,
        "meta_element_set_no": 999,
        "meta_rev_at_epoch": 405,
        "meta_bstar": 0.00051282126,
        "meta_mean_motion_dot": 0.00010165,
        "meta_mean_motion_ddot": 0,
        "tle_line1": "1 66713U 25276AZ  25359.46913758  .00010165  00000+0  51282-3 0  9995",
        "tle_line2": "2 66713  97.4392  70.9982 0003459 240.4175 119.6714 15.17312979  4051"
      },
      "geometry": {
        "type": "Point",
        "coordinates": [
          -127.08506426023574,
          -68.16714334775305
        ]
      }
    },
    {
      "type": "Feature",
      "properties": {
        "norad_id": 66714,
        "name": "FLOCK 4H-11",
        "group": "last-30-days",
        "lat": -73.47718315517665,
        "lon": 98.11693603434942,
        "alt_km": 518.384072654625,
        "timestamp": "2025-12-26T10:30:48.974126+00:00",
        "meta_object_name": "FLOCK 4H-11",
        "meta_object_id": "2025-276BA",
        "meta_epoch": "2025-12-26T04:30:56.858112",
        "meta_mean_motion": 15.17867519,
        "meta_eccentricity": 0.000202,
        "meta_inclination": 97.4409,
        "meta_ra_of_asc_node": 71.7309,
        "meta_arg_of_pericenter": 256.4833,
        "meta_mean_anomaly": 103.6176,
        "meta_ephemeris_type": 0,
        "meta_classification_type": "U",
        "meta_norad_cat_id": 66714,
        "meta_element_set_no": 999,
        "meta_rev_at_epoch": 416,
        "meta_bstar": 0.0005236,
        "meta_mean_motion_dot": 0.00010546,
        "meta_mean_motion_ddot": 0,
        "tle_line1": "1 66714U 25276BA  25360.18815808  .00010546  00000+0  52360-3 0  9995",
        "tle_line2": "2 66714  97.4409  71.7309 0002020 256.4833 103.6176 15.17867519  4166"
      },
      "geometry": {
        "type": "Point",
        "coordinates": [
          98.11693603434942,
          -73.47718315517665
        ]
      }
    },
    {
      "type": "Feature",
      "properties": {
        "norad_id": 66715,
        "name": "FLOCK 4H-12",
        "group": "last-30-days",
        "lat": -30.818473904199035,
        "lon": 76.44794449220352,
        "alt_km": 518.9939193909095,
        "timestamp": "2025-12-26T10:30:48.974136+00:00",
        "meta_object_name": "FLOCK 4H-12",
        "meta_object_id": "2025-276BB",
        "meta_epoch": "2025-12-26T04:19:21.974016",
        "meta_mean_motion": 15.18117609,
        "meta_eccentricity": 0.0002215,
        "meta_inclination": 97.4384,
        "meta_ra_of_asc_node": 71.7242,
        "meta_arg_of_pericenter": 173.8479,
        "meta_mean_anomaly": 186.2782,
        "meta_ephemeris_type": 0,
        "meta_classification_type": "U",
        "meta_norad_cat_id": 66715,
        "meta_element_set_no": 999,
        "meta_rev_at_epoch": 447,
        "meta_bstar": 0.00045008,
        "meta_mean_motion_dot": 9.12e-05,
        "meta_mean_motion_ddot": 0,
        "tle_line1": "1 66715U 25276BB  25360.18011544  .00009120  00000+0  45008-3 0  9998",
        "tle_line2": "2 66715  97.4384  71.7242 0002215 173.8479 186.2782 15.18117609  4472"
      },
      "geometry": {
        "type": "Point",
        "coordinates": [
          76.44794449220352,
          -30.818473904199035
        ]
      }
    },
    {
      "type": "Feature",
      "properties": {
        "norad_id": 66716,
        "name": "FLOCK 4H-13",
        "group": "last-30-days",
        "lat": -18.155727079921345,
        "lon": 74.45687030359213,
        "alt_km": 517.4427964240804,
        "timestamp": "2025-12-26T10:30:48.974146+00:00",
        "meta_object_name": "FLOCK 4H-13",
        "meta_object_id": "2025-276BC",
        "meta_epoch": "2025-12-26T00:00:02.000160",
        "meta_mean_motion": 15.18218609,
        "meta_eccentricity": 0.0001902,
        "meta_inclination": 97.4419,
        "meta_ra_of_asc_node": 71.5693,
        "meta_arg_of_pericenter": 138.07,
        "meta_mean_anomaly": 331.0846,
        "meta_ephemeris_type": 0,
        "meta_classification_type": "U",
        "meta_norad_cat_id": 66716,
        "meta_element_set_no": 999,
        "meta_rev_at_epoch": 258,
        "meta_bstar": 0.0014352,
        "meta_mean_motion_dot": 0.00029392,
        "meta_mean_motion_ddot": 0,
        "tle_line1": "1 66716U 25276BC  25360.00002315  .00029392  00000+0  14352-2 0  9996",
        "tle_line2": "2 66716  97.4419  71.5693 0001902 138.0700 331.0846 15.18218609  2585"
      },
      "geometry": {
        "type": "Point",
        "coordinates": [
          74.45687030359213,
          -18.155727079921345
        ]
      }
    },
    {
      "type": "Feature",
      "properties": {
        "norad_id": 66717,
        "name": "FLOCK 4H-14",
        "group": "last-30-days",
        "lat": -5.459514767965362,
        "lon": 72.71606806968926,
        "alt_km": 515.3213201824619,
        "timestamp": "2025-12-26T10:30:48.974158+00:00",
        "meta_object_name": "FLOCK 4H-14",
        "meta_object_id": "2025-276BD",
        "meta_epoch": "2025-12-26T02:37:46.726176",
        "meta_mean_motion": 15.18387717,
        "meta_eccentricity": 0.0001764,
        "meta_inclination": 97.4408,
        "meta_ra_of_asc_node": 71.6772,
        "meta_arg_of_pericenter": 130.1799,
        "meta_mean_anomaly": 229.959,
        "meta_ephemeris_type": 0,
        "meta_classification_type": "U",
        "meta_norad_cat_id": 66717,
        "meta_element_set_no": 999,
        "meta_rev_at_epoch": 340,
        "meta_bstar": 0.00031331,
        "meta_mean_motion_dot": 6.376e-05,
        "meta_mean_motion_ddot": 0,
        "tle_line1": "1 66717U 25276BD  25360.10956859  .00006376  00000+0  31331-3 0  9993",
        "tle_line2": "2 66717  97.4408  71.6772 0001764 130.1799 229.9590 15.18387717  3400"
      },
      "geometry": {
        "type": "Point",
        "coordinates": [
          72.71606806968926,
          -5.459514767965362
        ]
      }
    }
  ]
}